STARLINK-2667           
1 48663U 21044AB  26106.79722117  .00025196  00000+0  85729-3 0  9995
2 48663  53.1515 286.8252 0000667  28.5587 331.5450 15.30300277269800
STARLINK-2666           
1 48666U 21044AE  26106.79404818 -.00002277  00000+0 -64795-4 0  9991
2 48666  53.1614 296.8661 0001197  90.1213 269.9925 15.30186740269648
STARLINK-2735           
1 48667U 21044AF  26106.86083327  .00003317  00000+0  12717-3 0  9998
2 48667  53.1564 296.3904 0001167  80.7477 279.3656 15.29369678269661
STARLINK-2738           
1 48668U 21044AG  26106.79297354  .00003480  00000+0  12379-3 0  9993
2 48668  53.1585 286.9031 0001132  76.5152 283.5975 15.31715470269801
STARLINK-2707           
1 48669U 21044AH  26106.67180464  .00003143  00000+0  11298-3 0  9999
2 48669  53.1577 287.6010 0001245  90.5806 269.5338 15.31705105269772
STARLINK-2763           
1 48670U 21044AJ  26106.68115898  .00001429  00000+0  57807-4 0  9993
2 48670  53.1606 287.6798 0001663 116.2653 243.8520 15.31700086269771
STARLINK-2745           
1 48671U 21044AK  26106.92678028  .00004255  00000+0  15567-3 0  9996
2 48671  53.1604 296.2520 0000981  78.5485 281.5626 15.30206483269669
STARLINK-2705           
1 48672U 21044AL  26106.67618390  .00000319  00000+0  22885-4 0  9994
2 48672  53.1604 287.7139 0001281  93.8070 266.3077 15.30203322269777
STARLINK-2711           
1 48673U 21044AM  26106.71012683  .00001411  00000+0  61229-4 0  9992
2 48673  53.1563 297.1065 0001410  90.1118 270.0044 15.29350939269638
STARLINK-2712           
1 48674U 21044AN  26106.98051036  .00010236  00000+0  35768-3 0  9990
2 48674  53.1611 295.9842 0001356  74.5869 285.5282 15.30159609269672
STARLINK-2746           
1 48676U 21044AQ  26106.71292871  .00000695  00000+0  35579-4 0  9996
2 48676  53.1602 297.2283 0001340  89.2098 270.9056 15.30201083269635
STARLINK-2615           
1 48678U 21044AS  26106.67295379  .00002072  00000+0  82061-4 0  9998
2 48678  53.1579 287.2698 0001190  92.6065 267.5072 15.30202508269783
STARLINK-2648           
1 48679U 21044AT  26106.95017338  .00004815  00000+0  17896-3 0  9997
2 48679  53.1538 295.9976 0001106  86.8569 273.2558 15.29375729269670
STARLINK-2725           
1 48681U 21044AV  26106.66593696  .00000773  00000+0  38216-4 0  9993
2 48681  53.1596 258.8760 0001210  92.3526 267.7613 15.30205067270173
STARLINK-2743           
1 48682U 21044AW  26106.89921504  .00065483  00000+0  21672-2 0  9997
2 48682  53.1598 247.4611 0000978  92.0060 268.1053 15.30740064270359
STARLINK-2756           
1 48683U 21044AX  26107.08591035  .00137381  00000+0  44808-2 0  9995
2 48683  53.1601 246.7823 0000716 169.1744 190.9273 15.30805506270389
STARLINK-2741           
1 48684U 21044AY  26106.65095955  .00005197  00000+0  17906-3 0  9997
2 48684  53.1586 261.5337 0001185  88.4402 271.6735 15.31711483270147
STARLINK-2751           
1 48685U 21044AZ  26107.09064733  .00001300  00000+0  53635-4 0  9999
2 48685  53.1616 246.4787 0001061  90.3553 269.7570 15.31704380270395
STARLINK-2629           
1 48686U 21044BA  26107.00002315  .00018756  00000+0  63599-3 0  9991
2 48686  53.1608 257.3525 0002618 154.6133 107.3940 15.30595301  5760
STARLINK-2627           
1 48687U 21044BB  26106.65720748  .00001937  00000+0  74173-4 0  9993
2 48687  53.1618 248.5650 0001418  89.6779 270.4385 15.31703481270314
STARLINK-2742           
1 48688U 21044BC  26106.67441824  .00002378  00000+0  92384-4 0  9995
2 48688  53.1606 248.6216 0001147  88.2542 271.8590 15.30198003270313
STARLINK-2740           
1 48690U 21044BE  26107.33336806  .00045946  00000+0  14842-2 0  9994
2 48690  53.1586 255.7647 0001000  99.7999 350.2184 15.31680460  5918
STARLINK-2750           
1 48691U 21044BF  26106.67823547  .00002151  00000+0  81017-4 0  9995
2 48691  53.1606 258.7913 0001256  88.2843 271.8302 15.31713994270176
STARLINK-2752           
1 48692U 21044BG  26106.69684921  .00000397  00000+0  24535-4 0  9991
2 48692  53.1606 258.4998 0001142  90.2942 269.8191 15.31715314270186
STARLINK-2618           
1 48693U 21044BH  26106.68788057  .00002452  00000+0  90718-4 0  9996
2 48693  53.1591 258.6816 0001178  86.7584 273.3553 15.31711864270180
STARLINK-2748           
1 48694U 21044BJ  26106.67900401  .00001763  00000+0  68562-4 0  9991
2 48694  53.1611 261.9655 0000839  92.4500 267.6598 15.31704055270131
STARLINK-2616           
1 48695U 21044BK  26106.68855908  .00003388  00000+0  12081-3 0  9993
2 48695  53.1604 261.2317 0001429  94.4149 265.7016 15.31719576270159
STARLINK-2753           
1 48696U 21044BL  26106.73397667  .00001240  00000+0  53960-4 0  9990
2 48696  53.1594 271.7814 0000936 107.7532 252.3571 15.30202808270008
ONEWEB-0211             
1 48767U 21045A   26107.22290106  .00000102  00000+0  23418-3 0  9995
2 48767  87.8941 271.2562 0002037  75.1058 285.0298 13.16193480236421
ONEWEB-0223             
1 48768U 21045B   26106.73894838  .00000132  00000+0  31538-3 0  9998
2 48768  87.8944 271.4450 0002070  85.7706 274.3661 13.15547811236321
ONEWEB-0230             
1 48769U 21045C   26106.71042698 -.00000076  00000+0 -23535-3 0  9993
2 48769  87.8936 271.4700 0001792  99.7817 260.3516 13.15548061236589
ONEWEB-0237             
1 48770U 21045D   26106.47116341 -.00000048  00000+0 -16105-3 0  9999
2 48770  87.8938 271.5194 0002048  92.3865 267.7500 13.15547661236273
ONEWEB-0235             
1 48771U 21045E   26106.75003194  .00000181  00000+0  44718-3 0  9999
2 48771  87.8947 271.4437 0002140  87.8897 272.2478 13.15548544236300
ONEWEB-0242             
1 48772U 21045F   26107.27609111  .00000020  00000+0  19681-4 0  9993
2 48772  87.8947 271.3345 0001971  96.1300 264.0055 13.15548312236416
ONEWEB-0241             
1 48773U 21045G   26106.73102423  .00000068  00000+0  14584-3 0  9996
2 48773  87.8933 271.4686 0001946  83.4758 276.6594 13.15547470236252
ONEWEB-0243             
1 48774U 21045H   26106.68666542  .00000126  00000+0  30031-3 0  9998
2 48774  87.8938 271.4891 0002337  96.9671 263.1726 13.15548109236274
ONEWEB-0222             
1 48775U 21045J   26106.74606875  .00000183  00000+0  45176-3 0  9998
2 48775  87.8944 271.4401 0001890  91.1504 268.9843 13.15547169236328
ONEWEB-0244             
1 48776U 21045K   26106.69616425  .00000035  00000+0  58299-4 0  9992
2 48776  87.8952 271.4408 0001921  93.8256 266.3094 13.15548310236883
ONEWEB-0247             
1 48777U 21045L   26106.69300011  .00000114  00000+0  26907-3 0  9992
2 48777  87.8938 271.4826 0002590  90.2223 269.9204 13.15548195236322
ONEWEB-0245             
1 48778U 21045M   26106.68823766  .00000126  00000+0  30123-3 0  9997
2 48778  87.8949 271.4569 0001741  87.9801 272.1529 13.15547505236297
ONEWEB-0229             
1 48779U 21045N   26106.45531202  .00000129  00000+0  30861-3 0  9996
2 48779  87.8947 271.5018 0001928  96.3983 263.7367 13.15548024236291
ONEWEB-0228             
1 48780U 21045P   26106.48873392 -.00000127  00000+0 -37063-3 0  9991
2 48780  87.8954 271.4832 0001874  93.4927 266.6418 13.15548052236212
ONEWEB-0232             
1 48781U 21045Q   26106.69141285  .00000243  00000+0  61169-3 0  9995
2 48781  87.8958 271.4451 0001759  93.6617 266.4715 13.15546128236562
ONEWEB-0231             
1 48782U 21045R   26106.74529259  .00000455  00000+0  11747-2 0  9994
2 48782  87.8935 271.4540 0002127  90.2743 269.8631 13.15546366236265
ONEWEB-0234             
1 48783U 21045S   26106.70712255 -.00000069  00000+0 -21612-3 0  9997
2 48783  87.8946 271.4401 0001074  77.2664 282.8586 13.15549195236392
ONEWEB-0238             
1 48784U 21045T   26106.70739712 -.00000075  00000+0 -23305-3 0  9993
2 48784  87.8937 271.4331 0001399  88.3759 271.7532 13.15548369236292
ONEWEB-0240             
1 48785U 21045U   26106.72864303 -.00000062  00000+0 -19821-3 0  9995
2 48785  87.8951 271.4370 0001898  85.0337 275.1010 13.15546556236321
ONEWEB-0246             
1 48786U 21045V   26106.72310084  .00000016  00000+0  85944-5 0  9996
2 48786  87.8947 271.4448 0001906  96.5991 263.5357 13.15548106236199
ONEWEB-0210             
1 48787U 21045W   26106.69774743  .00000000  00000+0 -33234-4 0  9997
2 48787  87.8950 271.4466 0002691  97.4277 262.7159 13.15547469236230
ONEWEB-0214             
1 48788U 21045X   26106.70644942 -.00000284  00000+0 -78970-3 0  9997
2 48788  87.8948 271.4409 0002176 100.6434 259.4941 13.15548868236208
ONEWEB-0221             
1 48789U 21045Y   26106.71359121 -.00000094  00000+0 -28328-3 0  9992
2 48789  87.8946 271.4491 0001956  90.9781 269.1574 13.15548287236293
ONEWEB-0213             
1 48790U 21045Z   26106.70249739 -.00000048  00000+0 -16251-3 0  9997
2 48790  87.8947 271.4551 0002096  92.2252 267.9119 13.15547355236350
ONEWEB-0212             
1 48791U 21045AA  26106.75556485  .00000273  00000+0  68996-3 0  9993
2 48791  87.8950 271.4390 0001713  95.1740 264.9585 13.15551326236352
ONEWEB-0227             
1 48792U 21045AB  26106.75478870  .00000183  00000+0  45165-3 0  9998
2 48792  87.8945 271.4411 0001829  92.5674 267.5665 13.15548871236300
ONEWEB-0226             
1 48793U 21045AC  26106.74844649  .00000241  00000+0  60504-3 0  9998
2 48793  87.8936 271.4486 0002117  95.4267 264.7105 13.15548372236274
ONEWEB-0224             
1 48794U 21045AD  26106.71200288 -.00000053  00000+0 -17502-3 0  9994
2 48794  87.8940 271.4918 0001661  65.9891 294.1413 13.15547076236198
ONEWEB-0233             
1 48795U 21045AE  26106.48845667 -.00000075  00000+0 -23331-3 0  9996
2 48795  87.8935 271.5450 0001972  87.6040 272.5316 13.15548526236189
ONEWEB-0190             
1 48796U 21045AF  26106.70408238 -.00000128  00000+0 -37543-3 0  9990
2 48796  87.8938 271.4631 0002453  86.7853 273.3558 13.15547516236286
ONEWEB-0236             
1 48797U 21045AG  26106.72151168 -.00000065  00000+0 -20551-3 0  9991
2 48797  87.8934 271.4706 0001642  95.8651 264.2667 13.15547230236173
